{"fetched_at":"2026-03-29T16:36:15Z","count":15609,"tles":[{"name":"STARLINK-30231","line1":"1 57514U 23113V   26087.82163619  .00000835  00000+0  40802-4 0  9994","line2":"2 57514  43.0045 267.8033 0001538 277.7203  82.3474 15.26747293146605","category":"Starlink"}]}