{
  "norad_id": 57514,
  "name": "STARLINK-30231",
  "history": [
    {
      "epoch": "2026-03-28T19:43:09.366816Z",
      "apogee_km": 486.59976812317655,
      "perigee_km": 484.48753903884426,
      "latitude_deg": 2.6997327050053088e-05,
      "longitude_deg": 145.77772290766424,
      "height_km": 485.17918300740274,
      "semi_major_axis_km": 6863.68065358101,
      "eccentricity": 0.00015387,
      "inclination_deg": 43.0045,
      "raan_deg": 267.8033,
      "arg_perigee_deg": 277.7203,
      "mean_anomaly_deg": 82.3474,
      "mean_motion_rev_day": 15.26747293
    }
  ]
}